ONEWEB-0572             
1 55151U 23004M   26064.41084085 -.00000025  00000+0 -98208-4 0  9993
2 55151  87.9144  26.4742 0002051  80.8596 279.2767 13.17649957153811
ONEWEB-0573             
1 55152U 23004N   26064.54293066  .00000011  00000+0 -41144-5 0  9991
2 55152  87.9241 356.0601 0002620  73.6989 286.4431 13.18686072156039
ONEWEB-0588             
1 55153U 23004P   26064.76394542  .00000048  00000+0  89739-4 0  9997
2 55153  87.9239 356.0168 0002116  70.1590 289.9770 13.18684507156063
ONEWEB-0598             
1 55154U 23004Q   26064.47295203  .00000344  00000+0  93412-3 0  9991
2 55154  87.8851  41.6943 0002343  92.6099 267.5298 13.11414317152309
ONEWEB-0599             
1 55155U 23004R   26064.59984330  .00000038  00000+0  63474-4 0  9997
2 55155  87.9139  26.4361 0001839  88.0104 272.1238 13.17647860153843
ONEWEB-0614             
1 55156U 23004S   26064.62045897  .00000535  00000+0  14726-2 0  9994
2 55156  87.8853  41.6729 0001842  72.7131 287.4199 13.11415330152266
ONEWEB-0616             
1 55157U 23004T   26064.41423006  .00000040  00000+0  69658-4 0  9991
2 55157  87.9152  26.4728 0001601 111.8778 248.2524 13.17649408154030
ONEWEB-0617             
1 55158U 23004U   26064.45600130  .00000505  00000+0  13893-2 0  9995
2 55158  87.8862  41.6889 0002085  74.5943 285.5415 13.11415778152262
ONEWEB-0618             
1 55159U 23004V   26064.45946448  .00008334  00000+0  48448-3 0  9994
2 55159  86.9056 219.6915 0011221 327.6757  32.3793 15.11895170166589
ONEWEB-0619             
1 55160U 23004W   26064.44629748  .00000032  00000+0  48788-4 0  9991
2 55160  87.9156  26.4392 0001393  75.0516 285.0770 13.17648701153939
ONEWEB-0620             
1 55161U 23004X   26064.45091767  .00000374  00000+0  10195-2 0  9995
2 55161  87.8857  41.7058 0002147  82.8953 277.2419 13.11417412152237
ONEWEB-0621             
1 55162U 23004Y   26064.47804294  .00000145  00000+0  37442-3 0  9996
2 55162  87.8864  41.6801 0001737  77.4821 282.6501 13.11415241152217
ONEWEB-0622             
1 55163U 23004Z   26064.63571163 -.00000104  00000+0 -32922-3 0  9996
2 55163  87.8857  41.6512 0002216  64.3060 295.8297 13.11415992152224
ONEWEB-0623             
1 55164U 23004AA  26064.44123499  .00000023  00000+0  25788-4 0  9992
2 55164  87.9147  26.4825 0001714  56.9307 303.1989 13.17648890153929
ONEWEB-0624             
1 55165U 23004AB  26064.55048023 -.00000001  00000+0 -37358-4 0  9998
2 55165  87.8994  11.1732 0001766  72.3331 287.7990 13.12922382154479
ONEWEB-0625             
1 55166U 23004AC  26064.58298329  .00000015  00000+0  65506-5 0  9998
2 55166  87.9142  26.4486 0001742  83.8754 276.2576 13.17649273153934
ONEWEB-0626             
1 55167U 23004AD  26064.42098762  .00000118  00000+0  26972-3 0  9997
2 55167  87.9143  26.4809 0002317  86.5712 273.5684 13.17649405153913
