[{"OBJECT_NAME":"ONEWEB-0572","OBJECT_ID":"2023-004M","EPOCH":"2026-03-05T09:51:36.649440","MEAN_MOTION":13.17649957,"ECCENTRICITY":0.0002051,"INCLINATION":87.9144,"RA_OF_ASC_NODE":26.4742,"ARG_OF_PERICENTER":80.8596,"MEAN_ANOMALY":279.2767,"EPHEMERIS_TYPE":0,"CLASSIFICATION_TYPE":"U","NORAD_CAT_ID":55151,"ELEMENT_SET_NO":999,"REV_AT_EPOCH":15381,"BSTAR":-9.8208e-5,"MEAN_MOTION_DOT":-2.5e-7,"MEAN_MOTION_DDOT":0},{"OBJECT_NAME":"ONEWEB-0573","OBJECT_ID":"2023-004N","EPOCH":"2026-03-05T13:01:49.209024","MEAN_MOTION":13.18686072,"ECCENTRICITY":0.000262,"INCLINATION":87.9241,"RA_OF_ASC_NODE":356.0601,"ARG_OF_PERICENTER":73.6989,"MEAN_ANOMALY":286.4431,"EPHEMERIS_TYPE":0,"CLASSIFICATION_TYPE":"U","NORAD_CAT_ID":55152,"ELEMENT_SET_NO":999,"REV_AT_EPOCH":15603,"BSTAR":-4.1144e-6,"MEAN_MOTION_DOT":1.1e-7,"MEAN_MOTION_DDOT":0},{"OBJECT_NAME":"ONEWEB-0588","OBJECT_ID":"2023-004P","EPOCH":"2026-03-05T18:20:04.884288","MEAN_MOTION":13.18684507,"ECCENTRICITY":0.0002116,"INCLINATION":87.9239,"RA_OF_ASC_NODE":356.0168,"ARG_OF_PERICENTER":70.159,"MEAN_ANOMALY":289.977,"EPHEMERIS_TYPE":0,"CLASSIFICATION_TYPE":"U","NORAD_CAT_ID":55153,"ELEMENT_SET_NO":999,"REV_AT_EPOCH":15606,"BSTAR":8.9739e-5,"MEAN_MOTION_DOT":4.8e-7,"MEAN_MOTION_DDOT":0},{"OBJECT_NAME":"ONEWEB-0598","OBJECT_ID":"2023-004Q","EPOCH":"2026-03-05T11:21:03.055392","MEAN_MOTION":13.11414317,"ECCENTRICITY":0.0002343,"INCLINATION":87.8851,"RA_OF_ASC_NODE":41.6943,"ARG_OF_PERICENTER":92.6099,"MEAN_ANOMALY":267.5298,"EPHEMERIS_TYPE":0,"CLASSIFICATION_TYPE":"U","NORAD_CAT_ID":55154,"ELEMENT_SET_NO":999,"REV_AT_EPOCH":15230,"BSTAR":0.00093412,"MEAN_MOTION_DOT":3.44e-6,"MEAN_MOTION_DDOT":0},{"OBJECT_NAME":"ONEWEB-0599","OBJECT_ID":"2023-004R","EPOCH":"2026-03-05T14:23:46.461120","MEAN_MOTION":13.1764786,"ECCENTRICITY":0.0001839,"INCLINATION":87.9139,"RA_OF_ASC_NODE":26.4361,"ARG_OF_PERICENTER":88.0104,"MEAN_ANOMALY":272.1238,"EPHEMERIS_TYPE":0,"CLASSIFICATION_TYPE":"U","NORAD_CAT_ID":55155,"ELEMENT_SET_NO":999,"REV_AT_EPOCH":15384,"BSTAR":6.3474e-5,"MEAN_MOTION_DOT":3.8e-7,"MEAN_MOTION_DDOT":0},{"OBJECT_NAME":"ONEWEB-0614","OBJECT_ID":"2023-004S","EPOCH":"2026-03-05T14:53:27.655008","MEAN_MOTION":13.1141533,"ECCENTRICITY":0.0001842,"INCLINATION":87.8853,"RA_OF_ASC_NODE":41.6729,"ARG_OF_PERICENTER":72.7131,"MEAN_ANOMALY":287.4199,"EPHEMERIS_TYPE":0,"CLASSIFICATION_TYPE":"U","NORAD_CAT_ID":55156,"ELEMENT_SET_NO":999,"REV_AT_EPOCH":15226,"BSTAR":0.0014726,"MEAN_MOTION_DOT":5.35e-6,"MEAN_MOTION_DDOT":0},{"OBJECT_NAME":"ONEWEB-0616","OBJECT_ID":"2023-004T","EPOCH":"2026-03-05T09:56:29.477184","MEAN_MOTION":13.17649408,"ECCENTRICITY":0.0001601,"INCLINATION":87.9152,"RA_OF_ASC_NODE":26.4728,"ARG_OF_PERICENTER":111.8778,"MEAN_ANOMALY":248.2524,"EPHEMERIS_TYPE":0,"CLASSIFICATION_TYPE":"U","NORAD_CAT_ID":55157,"ELEMENT_SET_NO":999,"REV_AT_EPOCH":15403,"BSTAR":6.9658e-5,"MEAN_MOTION_DOT":4.0e-7,"MEAN_MOTION_DDOT":0},{"OBJECT_NAME":"ONEWEB-0617","OBJECT_ID":"2023-004U","EPOCH":"2026-03-05T10:56:38.512320","MEAN_MOTION":13.11415778,"ECCENTRICITY":0.0002085,"INCLINATION":87.8862,"RA_OF_ASC_NODE":41.6889,"ARG_OF_PERICENTER":74.5943,"MEAN_ANOMALY":285.5415,"EPHEMERIS_TYPE":0,"CLASSIFICATION_TYPE":"U","NORAD_CAT_ID":55158,"ELEMENT_SET_NO":999,"REV_AT_EPOCH":15226,"BSTAR":0.0013893,"MEAN_MOTION_DOT":5.05e-6,"MEAN_MOTION_DDOT":0},{"OBJECT_NAME":"ONEWEB-0618","OBJECT_ID":"2023-004V","EPOCH":"2026-03-05T11:01:37.731072","MEAN_MOTION":15.1189517,"ECCENTRICITY":0.0011221,"INCLINATION":86.9056,"RA_OF_ASC_NODE":219.6915,"ARG_OF_PERICENTER":327.6757,"MEAN_ANOMALY":32.3793,"EPHEMERIS_TYPE":0,"CLASSIFICATION_TYPE":"U","NORAD_CAT_ID":55159,"ELEMENT_SET_NO":999,"REV_AT_EPOCH":16658,"BSTAR":0.00048448,"MEAN_MOTION_DOT":8.334e-5,"MEAN_MOTION_DDOT":0},{"OBJECT_NAME":"ONEWEB-0619","OBJECT_ID":"2023-004W","EPOCH":"2026-03-05T10:42:40.102272","MEAN_MOTION":13.17648701,"ECCENTRICITY":0.0001393,"INCLINATION":87.9156,"RA_OF_ASC_NODE":26.4392,"ARG_OF_PERICENTER":75.0516,"MEAN_ANOMALY":285.077,"EPHEMERIS_TYPE":0,"CLASSIFICATION_TYPE":"U","NORAD_CAT_ID":55160,"ELEMENT_SET_NO":999,"REV_AT_EPOCH":15393,"BSTAR":4.8788e-5,"MEAN_MOTION_DOT":3.2e-7,"MEAN_MOTION_DDOT":0},{"OBJECT_NAME":"ONEWEB-0620","OBJECT_ID":"2023-004X","EPOCH":"2026-03-05T10:49:19.286688","MEAN_MOTION":13.11417412,"ECCENTRICITY":0.0002147,"INCLINATION":87.8857,"RA_OF_ASC_NODE":41.7058,"ARG_OF_PERICENTER":82.8953,"MEAN_ANOMALY":277.2419,"EPHEMERIS_TYPE":0,"CLASSIFICATION_TYPE":"U","NORAD_CAT_ID":55161,"ELEMENT_SET_NO":999,"REV_AT_EPOCH":15223,"BSTAR":0.0010195,"MEAN_MOTION_DOT":3.74e-6,"MEAN_MOTION_DDOT":0},{"OBJECT_NAME":"ONEWEB-0621","OBJECT_ID":"2023-004Y","EPOCH":"2026-03-05T11:28:22.910016","MEAN_MOTION":13.11415241,"ECCENTRICITY":0.0001737,"INCLINATION":87.8864,"RA_OF_ASC_NODE":41.6801,"ARG_OF_PERICENTER":77.4821,"MEAN_ANOMALY":282.6501,"EPHEMERIS_TYPE":0,"CLASSIFICATION_TYPE":"U","NORAD_CAT_ID":55162,"ELEMENT_SET_NO":999,"REV_AT_EPOCH":15221,"BSTAR":0.00037442,"MEAN_MOTION_DOT":1.45e-6,"MEAN_MOTION_DDOT":0},{"OBJECT_NAME":"ONEWEB-0622","OBJECT_ID":"2023-004Z","EPOCH":"2026-03-05T15:15:25.484832","MEAN_MOTION":13.11415992,"ECCENTRICITY":0.0002216,"INCLINATION":87.8857,"RA_OF_ASC_NODE":41.6512,"ARG_OF_PERICENTER":64.306,"MEAN_ANOMALY":295.8297,"EPHEMERIS_TYPE":0,"CLASSIFICATION_TYPE":"U","NORAD_CAT_ID":55163,"ELEMENT_SET_NO":999,"REV_AT_EPOCH":15222,"BSTAR":-0.00032922,"MEAN_MOTION_DOT":-1.04e-6,"MEAN_MOTION_DDOT":0},{"OBJECT_NAME":"ONEWEB-0623","OBJECT_ID":"2023-004AA","EPOCH":"2026-03-05T10:35:22.703136","MEAN_MOTION":13.1764889,"ECCENTRICITY":0.0001714,"INCLINATION":87.9147,"RA_OF_ASC_NODE":26.4825,"ARG_OF_PERICENTER":56.9307,"MEAN_ANOMALY":303.1989,"EPHEMERIS_TYPE":0,"CLASSIFICATION_TYPE":"U","NORAD_CAT_ID":55164,"ELEMENT_SET_NO":999,"REV_AT_EPOCH":15392,"BSTAR":2.5788e-5,"MEAN_MOTION_DOT":2.3e-7,"MEAN_MOTION_DDOT":0},{"OBJECT_NAME":"ONEWEB-0624","OBJECT_ID":"2023-004AB","EPOCH":"2026-03-05T13:12:41.491872","MEAN_MOTION":13.12922382,"ECCENTRICITY":0.0001766,"INCLINATION":87.8994,"RA_OF_ASC_NODE":11.1732,"ARG_OF_PERICENTER":72.3331,"MEAN_ANOMALY":287.799,"EPHEMERIS_TYPE":0,"CLASSIFICATION_TYPE":"U","NORAD_CAT_ID":55165,"ELEMENT_SET_NO":999,"REV_AT_EPOCH":15447,"BSTAR":-3.7358e-5,"MEAN_MOTION_DOT":-1.0e-8,"MEAN_MOTION_DDOT":0},{"OBJECT_NAME":"ONEWEB-0625","OBJECT_ID":"2023-004AC","EPOCH":"2026-03-05T13:59:29.756256","MEAN_MOTION":13.17649273,"ECCENTRICITY":0.0001742,"INCLINATION":87.9142,"RA_OF_ASC_NODE":26.4486,"ARG_OF_PERICENTER":83.8754,"MEAN_ANOMALY":276.2576,"EPHEMERIS_TYPE":0,"CLASSIFICATION_TYPE":"U","NORAD_CAT_ID":55166,"ELEMENT_SET_NO":999,"REV_AT_EPOCH":15393,"BSTAR":6.5506e-6,"MEAN_MOTION_DOT":1.5e-7,"MEAN_MOTION_DDOT":0},{"OBJECT_NAME":"ONEWEB-0626","OBJECT_ID":"2023-004AD","EPOCH":"2026-03-05T10:06:13.330368","MEAN_MOTION":13.17649405,"ECCENTRICITY":0.0002317,"INCLINATION":87.9143,"RA_OF_ASC_NODE":26.4809,"ARG_OF_PERICENTER":86.5712,"MEAN_ANOMALY":273.5684,"EPHEMERIS_TYPE":0,"CLASSIFICATION_TYPE":"U","NORAD_CAT_ID":55167,"ELEMENT_SET_NO":999,"REV_AT_EPOCH":15391,"BSTAR":0.00026972,"MEAN_MOTION_DOT":1.18e-6,"MEAN_MOTION_DDOT":0}]
